format  = 'OEF1.1'       ! file format
rectype = 'ML'           ! record type (1L/ML)
refsys  = ECLM J2000     ! default reference system
END_OF_HEADER
mult_7
! Equinoctial elements: a, e*sin(LP), e*cos(LP), tan(i/2)*sin(LN), tan(i/2)*cos(LN), mean long.
 EQU   3.21710853205206E+00  0.133910099168976  0.125923524734523 -0.002467886000804 -0.000756113846006  11.2033348032154
 MJD     50349.49432639 TDT
 MAG  14.644  0.150
! RMS    1.88230E-03   2.65050E-03   7.73787E-03   1.14909E-05   1.68439E-05   2.65619E-01
! EIG   3.32491E-07   4.52821E-07   1.09109E-05   1.61850E-04   1.83618E-03   9.40942E-03
! WEA  -0.17117  -0.27525  -0.81530  -0.00121  -0.00133  -0.47981
 COV   3.543051966003630E-06  4.708293317222833E-06  1.138521697071400E-05
 COV   1.668770908599459E-08  1.721375175623242E-08  4.741264318333883E-04
 COV   7.025143682698005E-06  1.929972338223585E-05  2.845912178621526E-08
 COV   3.065936576606466E-08  7.039443835669365E-04  5.987460958463067E-05
 COV   8.867232890164328E-08  9.888538492427818E-08  1.923461634551129E-03
 COV   1.320407195873008E-10  1.390214265130070E-10  2.835736396765862E-06
 COV   2.837172223416069E-10  3.049890753775650E-06  7.055364571997689E-02
 NOR   2.395333375826531E+08 -3.846180175049808E+10  6.075737251201220E+08
 NOR   2.065422264425808E+09  5.697193472156367E+07  3.654910312944579E+08
 NOR   6.972861920957545E+12 -1.097401255454956E+11 -3.238831375221683E+09
 NOR   1.439001445117329E+10 -6.632151980684255E+10  1.740489953627856E+09
 NOR  -7.606918838411254E+09 -7.354426690540791E+08  1.043729577701376E+09
 NOR   4.856835477128561E+12  3.121003192021603E+11  1.711783118459445E+07
 NOR   2.852086092614840E+10 -1.376853830817552E+08  6.308131996455960E+08
mult_8
! Equinoctial elements: a, e*sin(LP), e*cos(LP), tan(i/2)*sin(LN), tan(i/2)*cos(LN), mean long.
 EQU   3.21726637422103E+00  0.134169111377849  0.126690485938526 -0.002466749416838 -0.000754864498673  11.2291896846702
 MJD     50349.49432639 TDT
 MAG  14.649  0.150
! RMS    1.83318E-03   2.64119E-03   7.70185E-03   1.14882E-05   1.67856E-05   2.64432E-01
! EIG   3.31889E-07   4.52597E-07   1.08872E-05   1.61745E-04   1.83874E-03   9.35672E-03
! WEA  -0.16526  -0.27578  -0.81609  -0.00121  -0.00133  -0.48025
 COV   3.360534579329873E-06  4.532858757145631E-06  1.083050001264149E-05
 COV   1.593635233472329E-08  1.630079704712073E-08  4.562187670393231E-04
 COV   6.975890390784628E-06  1.913752621134109E-05  2.834462396649342E-08
 COV   3.040211123500426E-08  6.983357020275761E-04  5.931844612906211E-05
 COV   8.823994454209590E-08  9.798948328920925E-08  1.905312132467840E-03
 COV   1.319797499841821E-10  1.383795326739836E-10  2.821378142972770E-06
 COV   2.817565187216188E-10  3.021061910833570E-06  6.992446923904685E-02
 NOR   2.400318755113748E+08 -3.858022283102696E+10  6.176142412738116E+08
 NOR   2.069269186455377E+09  5.703408566447325E+07  3.668198246834043E+08
 NOR   6.996388805545042E+12 -1.115555763580535E+11 -3.236679504087423E+09
 NOR   1.441466427635551E+10 -6.658203258128173E+10  1.792261231751407E+09
 NOR  -7.628587882862734E+09 -7.399785676115420E+08  1.061579972133034E+09
 NOR   4.861655098439055E+12  3.122188178907874E+11  1.703682079541405E+07
 NOR   2.855292718640632E+10 -1.379996471753587E+08  6.336406911167808E+08
mult_9
! Equinoctial elements: a, e*sin(LP), e*cos(LP), tan(i/2)*sin(LN), tan(i/2)*cos(LN), mean long.
 EQU   3.21741778203397E+00  0.134427183524580  0.127453910899079 -0.002465613043647 -0.000753620662025  11.2549246835628
 MJD     50349.49432639 TDT
 MAG  14.654  0.150
! RMS    1.78515E-03   2.63191E-03   7.66598E-03   1.14856E-05   1.67276E-05   2.63252E-01
! EIG   3.31289E-07   4.52374E-07   1.08636E-05   1.61631E-04   1.84136E-03   9.30457E-03
! WEA  -0.15927  -0.27631  -0.81685  -0.00122  -0.00133  -0.48067
 COV   3.186761808187286E-06  4.358921111445250E-06  1.028144820248837E-05
 COV   1.518643786947754E-08  1.539694555073368E-08  4.384992439285946E-04
 COV   6.926956603410748E-06  1.897659861678349E-05  2.823043779000726E-08
 COV   3.014710504418066E-08  6.927738646773153E-04  5.876725419434472E-05
 COV   8.780936732656210E-08  9.710226320349653E-08  1.887337369227041E-03
 COV   1.319183612036380E-10  1.377413857005746E-10  2.807096713082490E-06
 COV   2.798140792379948E-10  2.992534403019554E-06  6.930159618405223E-02
 NOR   2.405325540236763E+08 -3.869887075099580E+10  6.276768985992938E+08
 NOR   2.073124494954614E+09  5.709631645573227E+07  3.681511815081831E+08
 NOR   7.019937232191089E+12 -1.133755719403777E+11 -3.234521298977558E+09
 NOR   1.443929440871498E+10 -6.684284421184216E+10  1.844771266878377E+09
 NOR  -7.650288347902915E+09 -7.445131147832359E+08  1.079490210004915E+09
 NOR   4.866479265123790E+12  3.123373120605205E+11  1.695552981498611E+07
 NOR   2.858508555579108E+10 -1.383136678045060E+08  6.364723040190156E+08
mult_10
! Equinoctial elements: a, e*sin(LP), e*cos(LP), tan(i/2)*sin(LN), tan(i/2)*cos(LN), mean long.
 EQU   3.21756276237281E+00  0.134684330881257  0.128213870369225 -0.002464476798673 -0.000752382202215  11.2805416787858
 MJD     50349.49432639 TDT
 MAG  14.658  0.150
! RMS    1.73830E-03   2.62266E-03   7.63027E-03   1.14829E-05   1.66700E-05   2.62078E-01
! EIG   3.30692E-07   4.52151E-07   1.08401E-05   1.61507E-04   1.84406E-03   9.25296E-03
! WEA  -0.15322  -0.27682  -0.81759  -0.00123  -0.00133  -0.48109
 COV   3.021685036156603E-06  4.186461875305024E-06  9.737986408027275E-06
 COV   1.443792399726187E-08  1.450205475810227E-08  4.209651134945610E-04
 COV   6.878337567468939E-06  1.881692047762720E-05  2.811655704520695E-08
 COV   2.989430851494014E-08  6.872581214519975E-04  5.822094981529914E-05
 COV   8.738056168645279E-08  9.622356692969811E-08  1.869534381263316E-03
 COV   1.318565576332165E-10  1.371069145743922E-10  2.792890834456959E-06
 COV   2.778895494404977E-10  2.964302775297145E-06  6.868491821703815E-02
 NOR   2.410354200221483E+08 -3.881775485356455E+10  6.377622662781047E+08
 NOR   2.076988521672993E+09  5.715863254627560E+07  3.694852045237768E+08
 NOR   7.043508741853787E+12 -1.152001940105778E+11 -3.232356529466444E+09
 NOR   1.446390656524665E+10 -6.710397143611598E+10  1.898021578404880E+09
 NOR  -7.672021838151915E+09 -7.490465544705463E+08  1.097461075030537E+09
 NOR   4.871308356188064E+12  3.124558112700679E+11  1.687395296592086E+07
 NOR   2.861733869675141E+10 -1.386274663133192E+08  6.393082164871937E+08
mult_11
! Equinoctial elements: a, e*sin(LP), e*cos(LP), tan(i/2)*sin(LN), tan(i/2)*cos(LN), mean long.
 EQU   3.21770132806187E+00  0.134940321097917  0.128969703678439 -0.002463341698636 -0.000751150178043  11.3060179086380
 MJD     50349.49432639 TDT
 MAG  14.663  0.150
! RMS    1.69275E-03   2.61344E-03   7.59473E-03   1.14802E-05   1.66128E-05   2.60912E-01
! EIG   3.30098E-07   4.51928E-07   1.08166E-05   1.61374E-04   1.84681E-03   9.20195E-03
! WEA  -0.14710  -0.27733  -0.81830  -0.00123  -0.00133  -0.48149
 COV   2.865414281975757E-06  4.015637571798090E-06  9.200589858335363E-06
 COV   1.369153448874728E-08  1.361688811660999E-08  4.036313755613950E-04
 COV   6.830077102374094E-06  1.865863161836920E-05  2.800308861079462E-08
 COV   2.964393398201173E-08  6.817932047332143E-04  5.767999875388617E-05
 COV   8.695392283904695E-08  9.535411471933458E-08  1.851917945964153E-03
 COV   1.317943983392896E-10  1.364766749310598E-10  2.778773244610310E-06
 COV   2.759844994170826E-10  2.936389486737367E-06  6.807493752825006E-02
 NOR   2.415399618045946E+08 -3.893676045960272E+10  6.478608594217523E+08
 NOR   2.080857447966339E+09  5.722096836919177E+07  3.708206147389705E+08
 NOR   7.067081161061020E+12 -1.170277184184030E+11 -3.230186865790466E+09
 NOR   1.448847743737745E+10 -6.736516869756864E+10  1.951960310702263E+09
 NOR  -7.693767529059156E+09 -7.535745969058982E+08  1.115475543057395E+09
 NOR   4.876137740820198E+12  3.125741924252034E+11  1.679216519328599E+07
 NOR   2.864965470258256E+10 -1.389407469685093E+08  6.421457610124413E+08
mult_12
! Equinoctial elements: a, e*sin(LP), e*cos(LP), tan(i/2)*sin(LN), tan(i/2)*cos(LN), mean long.
 EQU   3.21783349581286E+00  0.135195208865365  0.129721237257481 -0.002462208063202 -0.000749925043645  11.3313597987504
 MJD     50349.49432639 TDT
 MAG  14.668  0.150
! RMS    1.64861E-03   2.60426E-03   7.55940E-03   1.14775E-05   1.65559E-05   2.59753E-01
! EIG   3.29507E-07   4.51706E-07   1.07933E-05   1.61232E-04   1.84963E-03   9.15154E-03
! WEA  -0.14092  -0.27782  -0.81900  -0.00124  -0.00134  -0.48187
 COV   2.717927831028564E-06  3.846479944685459E-06  8.669343119607955E-06
 COV   1.294746815957934E-08  1.274157095444450E-08  3.865002171582450E-04
 COV   6.782175852556373E-06  1.850174376242214E-05  2.789003979631263E-08
 COV   2.939599991871050E-08  6.763788841372348E-04  5.714446947480072E-05
 COV   8.652953946694083E-08  9.449401831540472E-08  1.834488157564002E-03
 COV   1.317319042546207E-10  1.358508146599315E-10  2.764743890438764E-06
 COV   2.740991965786925E-10  2.908794570778289E-06  6.747159594566298E-02
 NOR   2.420460735572341E+08 -3.905586151191715E+10  6.579733597607489E+08
 NOR   2.084730388219795E+09  5.728330986623805E+07  3.721571145466925E+08
 NOR   7.090649164397483E+12 -1.188582513349291E+11 -3.228014222601038E+09
 NOR   1.451300188447460E+10 -6.762637585375240E+10  2.006590153778694E+09
 NOR  -7.715520374728422E+09 -7.580973592829157E+08  1.133534403672505E+09
 NOR   4.880966314501640E+12  3.126924359813610E+11  1.671018439118984E+07
 NOR   2.868202695326840E+10 -1.392534428522098E+08  6.449842729111264E+08
